GLOBALSTAR M069         
1 31573U 07020C   26195.96176376 -.00000111  00000+0 -16970-3 0  9996
2 31573  52.0010 173.5126 0001653 209.6394 184.4079 12.23472237882208
GLOBALSTAR M072         
1 31574U 07020D   26195.82457362 -.00000071  00000+0  17895-3 0  9990
2 31574  51.9948  26.6672 0001654  34.6897  66.8918 11.91658777878272
GLOBALSTAR M066         
1 32265U 07048C   26195.70588006 -.00000061  00000+0  28742-3 0  9997
2 32265  51.9610 338.9151 0005617 100.5943   1.9845 12.30389360863619
GLOBALSTAR M079         
1 37188U 10054A   26195.86075347 -.00000102  00000+0  91912-5 0  9990
2 37188  52.0053  24.4276 0001119  77.0818  29.8542 12.62266417726048
GLOBALSTAR M074         
1 37189U 10054B   26195.72312331 -.00000103  00000+0  54413-5 0  9999
2 37189  52.0032  24.1076 0000868  92.6101 348.5918 12.62262019726636
GLOBALSTAR M076         
1 37190U 10054C   26195.85475694 -.00000088  00000+0  88851-4 0  9991
2 37190  52.0045  23.9126 0001090  91.7985 107.7621 12.62262376726365
GLOBALSTAR M077         
1 37191U 10054D   26195.54445083 -.00000096  00000+0 -33325-3 0  9992
2 37191  51.9953 109.8583 0002285 224.4199 306.7040 11.67547542724338
GLOBALSTAR M075         
1 37192U 10054E   26196.01329294 -.00000090  00000+0  76821-4 0  9993
2 37192  51.9953  65.4683 0000750  64.7636  76.0712 12.62267841725457
GLOBALSTAR M073         
1 37193U 10054F   26195.60456110 -.00000105  00000+0 -65419-5 0  9996
2 37193  52.0080 340.8348 0001068  96.0877 344.8315 12.62266896727396
GLOBALSTAR M083         
1 37739U 11033A   26195.52341936 -.00000075  00000+0  15963-3 0  9992
2 37739  51.9869 289.2745 0000783 106.0658 267.2317 12.62264144696405
GLOBALSTAR M088         
1 37740U 11033B   26195.19537716 -.00000102  00000+0  11801-4 0  9999
2 37740  52.0185 196.7647 0000061 141.9135 298.6738 12.62269458691908
GLOBALSTAR M091         
1 37741U 11033C   26195.30615874 -.00000121  00000+0 -97057-4 0  9994
2 37741  51.9979 159.3526 0000404  21.5274 143.3320 12.62264242692705
GLOBALSTAR M085         
1 37742U 11033D   26195.90689425 -.00000106  00000+0 -11462-4 0  9993
2 37742  52.0122 108.8402 0000775  41.1098  34.9259 12.62264312693292
GLOBALSTAR M081         
1 37743U 11033E   26195.93401902 -.00000114  00000+0 -57557-4 0  9993
2 37743  51.9952 111.1621 0000660  54.4893  24.7086 12.62265258693447
GLOBALSTAR M089         
1 37744U 11033F   26195.81484000 -.00000092  00000+0  67547-4 0  9995
2 37744  51.9936  65.6785 0000696  89.6274 348.8380 12.62267589694274
GLOBALSTAR M084         
1 38040U 11080A   26195.57626521 -.00000084  00000+0  11270-3 0  9998
2 38040  52.0022 293.9022 0000849 127.8707 245.7709 12.62263488672223
GLOBALSTAR M080         
1 38041U 11080B   26195.54766304 -.00000080  00000+0  13249-3 0  9994
2 38041  52.0069 295.7171 0000308  83.6856 289.7459 12.62257441672349
GLOBALSTAR M082         
1 38042U 11080C   26195.40460559 -.00000070  00000+0  18993-3 0  9993
2 38042  52.0061 251.6564 0000187  93.2988 279.6627 12.62264170673036
GLOBALSTAR M092         
1 38043U 11080D   26195.71483120 -.00000093  00000+0  60415-4 0  9999
2 38043  52.0105 341.1090 0000789 102.5494   0.1646 12.62267766671523
GLOBALSTAR M090         
1 38044U 11080E   26195.54367924 -.00000046  00000+0  32213-3 0  9996
2 38044  52.0106 245.1978 0000434  91.6934  72.3141 12.62269509673167
GLOBALSTAR M086         
1 38045U 11080F   26195.56479733 -.00000081  00000+0  12783-3 0  9990
2 38045  51.9879 245.0174 0001523 110.8409  52.8382 12.62287747673110
GLOBALSTAR M097         
1 39072U 13005A   26195.32302369 -.00000125  00000+0 -11572-3 0  9999
2 39072  52.0026 160.7311 0000413  38.7360 321.3537 12.62271417620333
GLOBALSTAR M093         
1 39073U 13005B   26195.29625367 -.00000118  00000+0 -80175-4 0  9990
2 39073  52.0088 154.1697 0000635  43.3275 316.7642 12.62266341620288
GLOBALSTAR M094         
1 39074U 13005C   26195.85039626 -.00000094  00000+0  54994-4 0  9992
2 39074  52.0007  66.5731 0001085  80.2920 279.8069 12.62264501621966
GLOBALSTAR M096         
1 39075U 13005D   26195.46800344 -.00000110  00000+0 -32525-4 0  9999
2 39075  52.0069 116.5597 0000729  40.4781 319.6140 12.62265708620836
GLOBALSTAR M078         
1 39076U 13005E   26195.44112812 -.00000106  00000+0 -11801-4 0  9993
2 39076  51.9843 200.6145 0000813 336.0789  24.0040 12.62260142619454
GLOBALSTAR M095         
1 39077U 13005F   26195.38862566 -.00000105  00000+0 -63864-5 0  9991
2 39077  52.0054 198.4168 0000436  10.9077 349.1799 12.62264142619309
GLOBALSTAR M087         
1 52888U 22064A   26195.71847679 -.00000102  00000+0  72038-5 0  9995
2 52888  52.0014 338.6352 0000913  85.5772 274.5199 12.62269295194614
